start=new Date('2022-07-25T00:00:00.000Z').valueOf();
sats=[{"OBJECT_NAME":"STARLINK-3761","COUNTRY_CODE":"US","APOAPSIS":"540.968","ECCENTRICITY":"0.00017620","NORAD_CAT_ID":"52262","RA_OF_ASC_NODE":"291.7633","EPHEMERIS_TYPE":"0","OBJECT_ID":"2022-041B","CLASSIFICATION_TYPE":"U","ELEMENT_SET_NO":"999","REF_FRAME":"TEME","RCS_SIZE":"LARGE","MEAN_ANOMALY":"1.3784","MEAN_MOTION_DOT":"-0.00050930","DECAY_DATE":null,"ARG_OF_PERICENTER":"41.9927","PERIAPSIS":"538.530","INCLINATION":"53.2133","MEAN_MOTION":"15.08838942","PERIOD":"95.438","TLE_LINE2":"2 52262  53.2133 291.7633 0001762  41.9927   1.3784 15.08838942  1300","LAUNCH_DATE":"2022-04-21","BSTAR":"-0.00320470000000","EPOCH":"2022-07-24T22:00:00.999936","SEMIMAJOR_AXIS":"6917.884","TLE_LINE1":"1 52262U 22041B   22205.91667824 -.00050930  00000-0 -32047-2 0  9997","GP_ID":"208802198","OBJECT_TYPE":"PAYLOAD","CENTER_NAME":"EARTH","MEAN_ELEMENT_THEORY":"SGP4","REV_AT_EPOCH":"130","SITE":"AFETR","TIME_SYSTEM":"UTC","MEAN_MOTION_DDOT":"0.0000000000000","FILE":"3521124"},{"INCLINATION":"53.2128","MEAN_MOTION":"15.08849640","PERIOD":"95.437","TLE_LINE2":"2 52263  53.2128 291.7636 0001690  50.7374 357.7985 15.08849640  1300","PERIAPSIS":"538.547","SEMIMAJOR_AXIS":"6917.851","TLE_LINE1":"1 52263U 22041C   22205.91667824 -.00066143  00000-0 -41751-2 0  9993","GP_ID":"208801974","LAUNCH_DATE":"2022-04-21","BSTAR":"-0.00417510000000","EPOCH":"2022-07-24T22:00:00.999936","REV_AT_EPOCH":"130","SITE":"AFETR","CENTER_NAME":"EARTH","OBJECT_TYPE":"PAYLOAD","MEAN_ELEMENT_THEORY":"SGP4","MEAN_MOTION_DDOT":"0.0000000000000","FILE":"3521124","TIME_SYSTEM":"UTC","COUNTRY_CODE":"US","APOAPSIS":"540.885","OBJECT_NAME":"STARLINK-3786","ECCENTRICITY":"0.00016900","NORAD_CAT_ID":"52263","OBJECT_ID":"2022-041C","CLASSIFICATION_TYPE":"U","ELEMENT_SET_NO":"999","RA_OF_ASC_NODE":"291.7636","EPHEMERIS_TYPE":"0","DECAY_DATE":null,"ARG_OF_PERICENTER":"50.7374","REF_FRAME":"TEME","RCS_SIZE":"LARGE","MEAN_ANOMALY":"357.7985","MEAN_MOTION_DOT":"-0.00066143"},{"PERIAPSIS":"538.410","MEAN_MOTION":"15.08839446","INCLINATION":"53.2128","TLE_LINE2":"2 52264  53.2128 291.7627 0001933  40.2300  48.3285 15.08839446  1303","PERIOD":"95.438","BSTAR":"-0.00366420000000","LAUNCH_DATE":"2022-04-21","EPOCH":"2022-07-24T22:00:00.999936","SEMIMAJOR_AXIS":"6917.882","TLE_LINE1":"1 52264U 22041D   22205.91667824 -.00058134  00000-0 -36642-2 0  9998","GP_ID":"208802083","CENTER_NAME":"EARTH","OBJECT_TYPE":"PAYLOAD","MEAN_ELEMENT_THEORY":"SGP4","REV_AT_EPOCH":"130","SITE":"AFETR","TIME_SYSTEM":"UTC","MEAN_MOTION_DDOT":"0.0000000000000","FILE":"3521124","OBJECT_NAME":"STARLINK-3795","COUNTRY_CODE":"US","APOAPSIS":"541.084","NORAD_CAT_ID":"52264","ECCENTRICITY":"0.00019330","RA_OF_ASC_NODE":"291.7627","EPHEMERIS_TYPE":"0","OBJECT_ID":"2022-041D","ELEMENT_SET_NO":"999","CLASSIFICATION_TYPE":"U","RCS_SIZE":"LARGE","REF_FRAME":"TEME","MEAN_MOTION_DOT":"-0.00058134","MEAN_ANOMALY":"48.3285","DECAY_DATE":null,"ARG_OF_PERICENTER":"40.2300"},{"TIME_SYSTEM":"UTC","FILE":"3521124","MEAN_MOTION_DDOT":"0.0000000000000","MEAN_ELEMENT_THEORY":"SGP4","CENTER_NAME":"EARTH","OBJECT_TYPE":"PAYLOAD","SITE":"AFETR","REV_AT_EPOCH":"130","EPOCH":"2022-07-24T22:00:00.999936","LAUNCH_DATE":"2022-04-21","BSTAR":"-0.00158480000000","GP_ID":"208801494","TLE_LINE1":"1 52265U 22041E   22205.91667824 -.00025426  00000-0 -15848-2 0  9992","SEMIMAJOR_AXIS":"6917.864","PERIAPSIS":"538.407","PERIOD":"95.437","TLE_LINE2":"2 52265  53.2138 291.7610 0001910  42.2603  66.2351 15.08845442  1306","MEAN_MOTION":"15.08845442","INCLINATION":"53.2138","MEAN_ANOMALY":"66.2351","MEAN_MOTION_DOT":"-0.00025426","REF_FRAME":"TEME","RCS_SIZE":"LARGE","ARG_OF_PERICENTER":"42.2603","DECAY_DATE":null,"EPHEMERIS_TYPE":"0","RA_OF_ASC_NODE":"291.7610","CLASSIFICATION_TYPE":"U","ELEMENT_SET_NO":"999","OBJECT_ID":"2022-041E","ECCENTRICITY":"0.00019100","NORAD_CAT_ID":"52265","OBJECT_NAME":"STARLINK-3740","APOAPSIS":"541.050","COUNTRY_CODE":"US"},{"ELEMENT_SET_NO":"999","CLASSIFICATION_TYPE":"U","OBJECT_ID":"2022-041F","EPHEMERIS_TYPE":"0","RA_OF_ASC_NODE":"291.7612","ARG_OF_PERICENTER":"42.9883","DECAY_DATE":null,"MEAN_MOTION_DOT":"-0.00025753","MEAN_ANOMALY":"85.5481","RCS_SIZE":"LARGE","REF_FRAME":"TEME","APOAPSIS":"540.898","COUNTRY_CODE":"US","OBJECT_NAME":"STARLINK-3739","NORAD_CAT_ID":"52266","ECCENTRICITY":"0.00016810","SITE":"AFETR","REV_AT_EPOCH":"130","MEAN_ELEMENT_THEORY":"SGP4","OBJECT_TYPE":"PAYLOAD","CENTER_NAME":"EARTH","FILE":"3521124","MEAN_MOTION_DDOT":"0.0000000000000","TIME_SYSTEM":"UTC","TLE_LINE2":"2 52266  53.2143 291.7612 0001681  42.9883  85.5481 15.08843412  1300","PERIOD":"95.437","MEAN_MOTION":"15.08843412","INCLINATION":"53.2143","PERIAPSIS":"538.572","GP_ID":"208801832","TLE_LINE1":"1 52266U 22041F   22205.91667824 -.00025753  00000-0 -16056-2 0  9998","SEMIMAJOR_AXIS":"6917.870","EPOCH":"2022-07-24T22:00:00.999936","BSTAR":"-0.00160560000000","LAUNCH_DATE":"2022-04-21"},{"APOAPSIS":"541.035","COUNTRY_CODE":"US","OBJECT_NAME":"STARLINK-3748","ECCENTRICITY":"0.00018390","NORAD_CAT_ID":"52267","CLASSIFICATION_TYPE":"U","ELEMENT_SET_NO":"999","OBJECT_ID":"2022-041G","EPHEMERIS_TYPE":"0","RA_OF_ASC_NODE":"291.7609","ARG_OF_PERICENTER":"42.3111","DECAY_DATE":null,"MEAN_ANOMALY":"106.2660","MEAN_MOTION_DOT":"-0.00026394","REF_FRAME":"TEME","RCS_SIZE":"LARGE","PERIOD":"95.438","TLE_LINE2":"2 52267  53.2141 291.7609 0001839  42.3111 106.2660 15.08834192  1303","INCLINATION":"53.2141","MEAN_MOTION":"15.08834192","PERIAPSIS":"538.491","GP_ID":"208801609","TLE_LINE1":"1 52267U 22041G   22205.91667824 -.00026394  00000-0 -16466-2 0  9996","SEMIMAJOR_AXIS":"6917.898","EPOCH":"2022-07-24T22:00:00.999936","LAUNCH_DATE":"2022-04-21","BSTAR":"-0.00164660000000","SITE":"AFETR","REV_AT_EPOCH":"130","MEAN_ELEMENT_THEORY":"SGP4","CENTER_NAME":"EARTH","OBJECT_TYPE":"PAYLOAD","FILE":"3521124","MEAN_MOTION_DDOT":"0.0000000000000","TIME_SYSTEM":"UTC"},{"REV_AT_EPOCH":"130","SITE":"AFETR","OBJECT_TYPE":"PAYLOAD","CENTER_NAME":"EARTH","MEAN_ELEMENT_THEORY":"SGP4","MEAN_MOTION_DDOT":"0.0000000000000","FILE":"3521124","TIME_SYSTEM":"UTC","INCLINATION":"53.2144","MEAN_MOTION":"15.08864473","PERIOD":"95.436","TLE_LINE2":"2 52268  53.2144 291.7606 0001742  50.7901 157.7675 15.08864473  1309","PERIAPSIS":"538.466","SEMIMAJOR_AXIS":"6917.806","TLE_LINE1":"1 52268U 22041H   22205.91667824 -.00035206  00000-0 -22033-2 0  9996","GP_ID":"208801717","LAUNCH_DATE":"2022-04-21","BSTAR":"-0.00220330000000","EPOCH":"2022-07-24T22:00:00.999936","OBJECT_ID":"2022-041H","CLASSIFICATION_TYPE":"U","ELEMENT_SET_NO":"999","RA_OF_ASC_NODE":"291.7606","EPHEMERIS_TYPE":"0","DECAY_DATE":null,"ARG_OF_PERICENTER":"50.7901","REF_FRAME":"TEME","RCS_SIZE":"LARGE","MEAN_ANOMALY":"157.7675","MEAN_MOTION_DOT":"-0.00035206","COUNTRY_CODE":"US","APOAPSIS":"540.876","OBJECT_NAME":"STARLINK-3746","ECCENTRICITY":"0.00017420","NORAD_CAT_ID":"52268"},{"TIME_SYSTEM":"UTC","FILE":"3521124","MEAN_MOTION_DDOT":"0.0000000000000","MEAN_ELEMENT_THEORY":"SGP4","CENTER_NAME":"EARTH","OBJECT_TYPE":"PAYLOAD","SITE":"AFETR","REV_AT_EPOCH":"130","EPOCH":"2022-07-24T22:00:00.999936","LAUNCH_DATE":"2022-04-21","BSTAR":"-0.00168630000000","GP_ID":"208801859","TLE_LINE1":"1 52269U 22041J   22205.91667824 -.00027025  00000-0 -16863-2 0  9991","SEMIMAJOR_AXIS":"6917.880","PERIAPSIS":"538.700","PERIOD":"95.438","TLE_LINE2":"2 52269  53.2146 291.7604 0001511  55.1783 113.3335 15.08840123  1308","INCLINATION":"53.2146","MEAN_MOTION":"15.08840123","MEAN_ANOMALY":"113.3335","MEAN_MOTION_DOT":"-0.00027025","REF_FRAME":"TEME","RCS_SIZE":"LARGE","ARG_OF_PERICENTER":"55.1783","DECAY_DATE":null,"EPHEMERIS_TYPE":"0","RA_OF_ASC_NODE":"291.7604","CLASSIFICATION_TYPE":"U","ELEMENT_SET_NO":"999","OBJECT_ID":"2022-041J","ECCENTRICITY":"0.00015110","NORAD_CAT_ID":"52269","OBJECT_NAME":"STARLINK-3791","APOAPSIS":"540.790","COUNTRY_CODE":"US"},{"RCS_SIZE":"LARGE","REF_FRAME":"TEME","MEAN_MOTION_DOT":"-0.00037773","MEAN_ANOMALY":"185.2462","DECAY_DATE":null,"ARG_OF_PERICENTER":"38.0784","RA_OF_ASC_NODE":"291.7528","EPHEMERIS_TYPE":"0","OBJECT_ID":"2022-041K","ELEMENT_SET_NO":"999","CLASSIFICATION_TYPE":"U","NORAD_CAT_ID":"52270","ECCENTRICITY":"0.00017480","OBJECT_NAME":"STARLINK-3804","COUNTRY_CODE":"US","APOAPSIS":"540.932","TIME_SYSTEM":"UTC","MEAN_MOTION_DDOT":"0.0000000000000","FILE":"3521124","OBJECT_TYPE":"PAYLOAD","CENTER_NAME":"EARTH","MEAN_ELEMENT_THEORY":"SGP4","REV_AT_EPOCH":"130","SITE":"AFETR","BSTAR":"-0.00236720000000","LAUNCH_DATE":"2022-04-21","EPOCH":"2022-07-24T22:00:00.999936","TLE_LINE1":"1 52270U 22041K   22205.91667824 -.00037773  00000-0 -23672-2 0  9990","SEMIMAJOR_AXIS":"6917.858","GP_ID":"208802199","PERIAPSIS":"538.514","MEAN_MOTION":"15.08847274","INCLINATION":"53.2154","TLE_LINE2":"2 52270  53.2154 291.7528 0001748  38.0784 185.2462 15.08847274  1300","PERIOD":"95.437"},{"OBJECT_NAME":"STARLINK-3788","COUNTRY_CODE":"US","APOAPSIS":"540.847","NORAD_CAT_ID":"52271","ECCENTRICITY":"0.00016180","RA_OF_ASC_NODE":"291.7612","EPHEMERIS_TYPE":"0","OBJECT_ID":"2022-041L","ELEMENT_SET_NO":"999","CLASSIFICATION_TYPE":"U","RCS_SIZE":"LARGE","REF_FRAME":"TEME","MEAN_MOTION_DOT":"-0.00054935","MEAN_ANOMALY":"137.2254","DECAY_DATE":null,"ARG_OF_PERICENTER":"51.3070","PERIAPSIS":"538.608","INCLINATION":"53.2137","MEAN_MOTION":"15.08845855","TLE_LINE2":"2 52271  53.2137 291.7612 0001618  51.3070 137.2254 15.08845855  1307","PERIOD":"95.437","BSTAR":"-0.00345950000000","LAUNCH_DATE":"2022-04-21","EPOCH":"2022-07-24T22:00:00.999936","SEMIMAJOR_AXIS":"6917.862","TLE_LINE1":"1 52271U 22041L   22205.91667824 -.00054935  00000-0 -34595-2 0  9996","GP_ID":"208801975","OBJECT_TYPE":"PAYLOAD","CENTER_NAME":"EARTH","MEAN_ELEMENT_THEORY":"SGP4","REV_AT_EPOCH":"130","SITE":"AFETR","TIME_SYSTEM":"UTC","MEAN_MOTION_DDOT":"0.0000000000000","FILE":"3521124"}];
